{
  "norad_id": 67516,
  "name": "STARLINK-36537",
  "history": [
    {
      "epoch": "2026-03-28T17:14:25.087488Z",
      "apogee_km": 484.7828317736248,
      "perigee_km": 481.16057804395587,
      "latitude_deg": 2.4890202107030124e-05,
      "longitude_deg": 122.05242543880509,
      "height_km": 482.5686386901324,
      "semi_major_axis_km": 6861.10870490879,
      "eccentricity": 0.00026397,
      "inclination_deg": 43.0024,
      "raan_deg": 206.7917,
      "arg_perigee_deg": 275.7346,
      "mean_anomaly_deg": 84.3205,
      "mean_motion_rev_day": 15.27605846
    },
    {
      "epoch": "2026-03-29T01:05:12.562656Z",
      "apogee_km": 483.48334116503975,
      "perigee_km": 482.47750135108345,
      "latitude_deg": -4.230140950698895e-05,
      "longitude_deg": 2.1818953387348534,
      "height_km": 482.2741780745749,
      "semi_major_axis_km": 6861.117421258062,
      "eccentricity": 7.33e-05,
      "inclination_deg": 43.0016,
      "raan_deg": 204.9413,
      "arg_perigee_deg": 343.4604,
      "mean_anomaly_deg": 16.6223,
      "mean_motion_rev_day": 15.27602935
    },
    {
      "epoch": "2026-03-30T00:37:34.513824Z",
      "apogee_km": 483.7397138098995,
      "perigee_km": 482.338661632366,
      "latitude_deg": -3.401649378184771e-05,
      "longitude_deg": 2.5879114117431348,
      "height_km": 482.37519525189646,
      "semi_major_axis_km": 6861.176187721132,
      "eccentricity": 0.0001021,
      "inclination_deg": 42.9999,
      "raan_deg": 199.4055,
      "arg_perigee_deg": 308.9334,
      "mean_anomaly_deg": 51.1426,
      "mean_motion_rev_day": 15.27583309
    },
    {
      "epoch": "2026-03-30T00:37:34.514688Z",
      "apogee_km": 483.73950797461384,
      "perigee_km": 482.33886746765165,
      "latitude_deg": -3.585312706613952e-05,
      "longitude_deg": 2.587905843217744,
      "height_km": 482.3753245841559,
      "semi_major_axis_km": 6861.176187721132,
      "eccentricity": 0.00010207,
      "inclination_deg": 42.9999,
      "raan_deg": 199.4055,
      "arg_perigee_deg": 308.9334,
      "mean_anomaly_deg": 51.1426,
      "mean_motion_rev_day": 15.27583309
    },
    {
      "epoch": "2026-03-30T16:19:08.499936Z",
      "apogee_km": 483.56377551469996,
      "perigee_km": 482.4725773954351,
      "latitude_deg": -2.010308701876012e-05,
      "longitude_deg": 122.85363888400522,
      "height_km": 482.7240511813954,
      "semi_major_axis_km": 6861.155176455067,
      "eccentricity": 7.952e-05,
      "inclination_deg": 43.0039,
      "raan_deg": 195.7073,
      "arg_perigee_deg": 277.4498,
      "mean_anomaly_deg": 82.6263,
      "mean_motion_rev_day": 15.27590326
    },
    {
      "epoch": "2026-03-31T08:00:42.004800Z",
      "apogee_km": 483.83153902056347,
      "perigee_km": 482.1659297096894,
      "latitude_deg": -8.648412760378144e-06,
      "longitude_deg": -116.87112549840336,
      "height_km": 482.93442504021334,
      "semi_major_axis_km": 6861.135734365126,
      "eccentricity": 0.00012138,
      "inclination_deg": 43.0016,
      "raan_deg": 192.0166,
      "arg_perigee_deg": 258.9928,
      "mean_anomaly_deg": 101.0787,
      "mean_motion_rev_day": 15.27596819
    },
    {
      "epoch": "2026-04-01T16:57:59.017248Z",
      "apogee_km": 484.50390528267235,
      "perigee_km": 481.4959828463934,
      "latitude_deg": 1.9129013041053767e-05,
      "longitude_deg": 99.6986182364975,
      "height_km": 482.62537862779664,
      "semi_major_axis_km": 6861.136944064532,
      "eccentricity": 0.0002192,
      "inclination_deg": 43.0027,
      "raan_deg": 184.2606,
      "arg_perigee_deg": 275.8079,
      "mean_anomaly_deg": 84.2523,
      "mean_motion_rev_day": 15.27596415
    },
    {
      "epoch": "2026-04-02T14:56:10.450752Z",
      "apogee_km": 483.32781505559797,
      "perigee_km": 482.56239273608753,
      "latitude_deg": -5.0337151594209024e-05,
      "longitude_deg": 124.080535980812,
      "height_km": 482.5875479234911,
      "semi_major_axis_km": 6861.082103895842,
      "eccentricity": 5.578e-05,
      "inclination_deg": 43.0025,
      "raan_deg": 179.0925,
      "arg_perigee_deg": 290.4601,
      "mean_anomaly_deg": 69.619,
      "mean_motion_rev_day": 15.2761473
    }
  ]
}